[{"OBJECT_NAME":"STARLINK-36060","OBJECT_ID":"2025-298R","EPOCH":"2026-03-09T22:00:01.999584","MEAN_MOTION":14.98356266,"ECCENTRICITY":0.0002785,"INCLINATION":70.0013,"RA_OF_ASC_NODE":13.8822,"ARG_OF_PERICENTER":268.1608,"MEAN_ANOMALY":9.2301,"EPHEMERIS_TYPE":0,"CLASSIFICATION_TYPE":"U","NORAD_CAT_ID":67090,"ELEMENT_SET_NO":999,"REV_AT_EPOCH":590,"BSTAR":-0.0022074468,"MEAN_MOTION_DOT":-0.00026351,"MEAN_MOTION_DDOT":0},{"OBJECT_NAME":"COSMOS 2251 DEB","OBJECT_ID":"1993-036SS","EPOCH":"2026-03-09T22:59:54.978144","MEAN_MOTION":15.02003149,"ECCENTRICITY":0.00206055,"INCLINATION":74.0288,"RA_OF_ASC_NODE":253.6967,"ARG_OF_PERICENTER":277.4018,"MEAN_ANOMALY":234.4946,"EPHEMERIS_TYPE":0,"CLASSIFICATION_TYPE":"U","NORAD_CAT_ID":34449,"ELEMENT_SET_NO":999,"REV_AT_EPOCH":89999,"BSTAR":0.0029470254,"MEAN_MOTION_DOT":0.00038984,"MEAN_MOTION_DDOT":0}]
